[{"OBJECT_NAME":"STARLINK-5315","OBJECT_ID":"2023-010AS","EPOCH":"2026-03-09T22:36:43.285824","MEAN_MOTION":14.98324735,"ECCENTRICITY":0.00026267,"INCLINATION":70.0021,"RA_OF_ASC_NODE":3.6806,"ARG_OF_PERICENTER":265.4453,"MEAN_ANOMALY":94.6406,"EPHEMERIS_TYPE":0,"CLASSIFICATION_TYPE":"U","NORAD_CAT_ID":55309,"ELEMENT_SET_NO":999,"REV_AT_EPOCH":17381,"BSTAR":-4.8305114e-5,"MEAN_MOTION_DOT":-6.69e-6,"MEAN_MOTION_DDOT":0},{"OBJECT_NAME":"CZ-6A DEB","OBJECT_ID":"2022-151BA","EPOCH":"2026-03-08T17:30:58.855968","MEAN_MOTION":14.9439792,"ECCENTRICITY":0.00472807,"INCLINATION":98.5596,"RA_OF_ASC_NODE":128.1704,"ARG_OF_PERICENTER":200.9968,"MEAN_ANOMALY":158.931,"EPHEMERIS_TYPE":0,"CLASSIFICATION_TYPE":"U","NORAD_CAT_ID":54307,"ELEMENT_SET_NO":999,"REV_AT_EPOCH":10452,"BSTAR":0.0069448926,"MEAN_MOTION_DOT":0.00077164,"MEAN_MOTION_DDOT":0}]
